ONEWEB-0291             
1 49081U 21075G   25312.72058110  .00000099  00000+0  22104-3 0  9993
2 49081  87.9139  49.6880 0001586  89.0928 271.0385 13.17651039204572
ONEWEB-0293             
1 49082U 21075H   25312.74588664 -.00000050  00000+0 -16110-3 0  9997
2 49082  87.9133  49.7073 0001852  98.7078 261.4263 13.17651116204609
ONEWEB-0294             
1 49083U 21075J   25312.62283612  .00000097  00000+0  23441-3 0  9994
2 49083  87.8977  34.4711 0002125  91.1420 268.9952 13.12440229205645
ONEWEB-0295             
1 49084U 21075K   25312.66911481  .00000003  00000+0 -24307-4 0  9992
2 49084  87.9137  49.7282 0001496  84.4311 275.6991 13.17648779204553
ONEWEB-0296             
1 49085U 21075L   25312.67962477  .00000422  00000+0  11380-2 0  9994
2 49085  87.8969  34.4654 0001759  84.9673 275.1656 13.12443308205659
ONEWEB-0297             
1 49086U 21075M   25312.63418278 -.00000268  00000+0 -78080-3 0  9997
2 49086  87.8966  34.5082 0001681 100.4240 259.7078 13.12440414206259
ONEWEB-0298             
1 49087U 21075N   25312.67346300  .00000002  00000+0 -29036-4 0  9991
2 49087  87.9130  49.7224 0001684 103.7281 256.4038 13.17650606204589
ONEWEB-0299             
1 49088U 21075P   25312.67502080  .00000081  00000+0  17575-3 0  9991
2 49088  87.9152  49.6822 0002010 106.6069 253.5284 13.17648650204562
